[{"OBJECT_NAME":"OBJECT A","OBJECT_ID":"2023-081A","EPOCH":"2026-03-09T22:51:43.391520","MEAN_MOTION":15.22207712,"ECCENTRICITY":0.0001697,"INCLINATION":97.3786,"RA_OF_ASC_NODE":140.8885,"ARG_OF_PERICENTER":111.1602,"MEAN_ANOMALY":248.9816,"EPHEMERIS_TYPE":0,"CLASSIFICATION_TYPE":"U","NORAD_CAT_ID":56846,"ELEMENT_SET_NO":999,"REV_AT_EPOCH":15291,"BSTAR":0.00017652669,"MEAN_MOTION_DOT":3.986e-5,"MEAN_MOTION_DDOT":0},{"OBJECT_NAME":"UNKNOWN","OBJECT_ID":"","EPOCH":"2026-03-09T03:40:49.808928","MEAN_MOTION":15.17985561,"ECCENTRICITY":0.0023398,"INCLINATION":66.7883,"RA_OF_ASC_NODE":96.9262,"ARG_OF_PERICENTER":16.4363,"MEAN_ANOMALY":343.7533,"EPHEMERIS_TYPE":0,"CLASSIFICATION_TYPE":"U","NORAD_CAT_ID":81449,"ELEMENT_SET_NO":999,"REV_AT_EPOCH":64658,"BSTAR":0.0066641,"MEAN_MOTION_DOT":0.00139351,"MEAN_MOTION_DDOT":0}]
